[{"OBJECT_NAME":"HAWK-6A","OBJECT_ID":"2023-011D","EPOCH":"2026-04-27T03:45:05.554656","MEAN_MOTION":15.22465916,"ECCENTRICITY":0.00029653,"INCLINATION":40.4991,"RA_OF_ASC_NODE":288.0763,"ARG_OF_PERICENTER":346.7863,"MEAN_ANOMALY":13.2868,"EPHEMERIS_TYPE":0,"CLASSIFICATION_TYPE":"U","NORAD_CAT_ID":55327,"ELEMENT_SET_NO":999,"REV_AT_EPOCH":18007,"BSTAR":0.00027266328,"MEAN_MOTION_DOT":6.255e-5,"MEAN_MOTION_DDOT":0},{"OBJECT_NAME":"HAWK-7A","OBJECT_ID":"2023-054P","EPOCH":"2026-04-27T06:16:44.643648","MEAN_MOTION":15.26815455,"ECCENTRICITY":0.00023276,"INCLINATION":97.2769,"RA_OF_ASC_NODE":5.8959,"ARG_OF_PERICENTER":176.5355,"MEAN_ANOMALY":183.5901,"EPHEMERIS_TYPE":0,"CLASSIFICATION_TYPE":"U","NORAD_CAT_ID":56191,"ELEMENT_SET_NO":999,"REV_AT_EPOCH":16925,"BSTAR":0.00026533485,"MEAN_MOTION_DOT":6.922e-5,"MEAN_MOTION_DDOT":0},{"OBJECT_NAME":"HAWK-7B","OBJECT_ID":"2023-054R","EPOCH":"2026-04-27T06:16:38.915328","MEAN_MOTION":15.26815881,"ECCENTRICITY":0.00014715,"INCLINATION":97.2797,"RA_OF_ASC_NODE":4.1415,"ARG_OF_PERICENTER":171.0947,"MEAN_ANOMALY":189.0318,"EPHEMERIS_TYPE":0,"CLASSIFICATION_TYPE":"U","NORAD_CAT_ID":56193,"ELEMENT_SET_NO":999,"REV_AT_EPOCH":16925,"BSTAR":0.00026598757,"MEAN_MOTION_DOT":6.939e-5,"MEAN_MOTION_DDOT":0},{"OBJECT_NAME":"HAWK-7C","OBJECT_ID":"2023-054Y","EPOCH":"2026-04-27T06:16:29.701632","MEAN_MOTION":15.26816552,"ECCENTRICITY":0.00020024,"INCLINATION":97.2772,"RA_OF_ASC_NODE":4.9261,"ARG_OF_PERICENTER":164.606,"MEAN_ANOMALY":195.5241,"EPHEMERIS_TYPE":0,"CLASSIFICATION_TYPE":"U","NORAD_CAT_ID":56200,"ELEMENT_SET_NO":999,"REV_AT_EPOCH":16925,"BSTAR":0.0002633461,"MEAN_MOTION_DOT":6.869e-5,"MEAN_MOTION_DDOT":0}]
