HAWK-6A                 
1 55327U 23011D   26117.15631429  .00006255  00000+0  27266-3 0  9990
2 55327  40.4991 288.0763 0002965 346.7863  13.2868 15.22465916180079
HAWK-7A                 
1 56191U 23054P   26117.26162782  .00006922  00000+0  26533-3 0  9997
2 56191  97.2769   5.8959 0002327 176.5355 183.5901 15.26815455169258
HAWK-7B                 
1 56193U 23054R   26117.26156152  .00006939  00000+0  26599-3 0  9993
2 56193  97.2797   4.1415 0001471 171.0947 189.0318 15.26815881169252
HAWK-7C                 
1 56200U 23054Y   26117.26145488  .00006869  00000+0  26335-3 0  9992
2 56200  97.2772   4.9261 0002002 164.6060 195.5241 15.26816552169259
